0 COSMOS 2251 DEB
1 35776U 93036ARW 13282.68541671  .00010221  00000-0  25348-2 0  1681
2 35776 074.0206 287.8765 0415316 268.5678 086.7864 14.10705471226553
0 COSMOS 2251 DEB
1 35776U 93036ARW 13282.68626730  .00004881  00000-0  12153-2 0  1675
2 35776 074.0188 287.8871 0415699 268.4162 091.2736 14.10666003226568
0 COSMOS 2251 DEB
1 35776U 93036ARW 13283.67821801  .00011472  00000-0  28444-2 0  1697
2 35776 074.0197 286.1154 0415186 266.5867 088.7710 14.10712944226699
0 COSMOS 2251 DEB
1 35776U 93036ARW 13285.66379286  .00008103  00000-0  20137-2 0  1703
2 35776 074.0219 282.6023 0414865 262.7149 092.6672 14.10744238226977
0 COSMOS 2251 DEB
1 35776U 93036ARW 13288.28752431  .00012311  00000-0  30539-2 0  1715
2 35776 074.0252 277.9526 0414489 257.5049 097.9435 14.10792649227348
0 COSMOS 2251 DEB
1 35776U 93036ARW 13289.63481027  .00011233  00000-0  27827-2 0  1724
2 35776 074.0191 275.5735 0414804 254.7313 100.7626 14.10814597227533
0 COSMOS 2251 DEB
1 35776U 93036ARW 13292.61296153  .00006950  00000-0  17365-2 0  1737
2 35776 074.0241 270.2996 0412980 248.9736 106.6774 14.10860724227955
0 COSMOS 2251 DEB
1 35776U 93036ARW 13293.60565317  .00008342  00000-0  20719-2 0  1743
2 35776 074.0210 268.5383 0414124 246.8529 108.8479 14.10875622228095
